TDRS 3                  
1 19548U 88091B   16076.46630316 -.00000318  00000-0  00000+0 0  9994
2 19548  14.7747  13.0205 0038591 307.6046 319.2001  1.00265709 87812
HST                     
1 20580U 90037B   16077.60023867  .00001554  00000-0  86581-4 0  9994
2 20580  28.4695 143.4841 0002553 307.3564 172.3419 15.08246090221275
TDRS 5                  
1 21639U 91054B   16077.51843089  .00000070  00000-0  00000+0 0  9995
2 21639  14.0236  26.3867 0026453 326.4937 201.7336  1.00280065 90165
TDRS 6                  
1 22314U 93003B   16077.80188748 -.00000310  00000-0  00000+0 0  9996
2 22314  13.5144  29.2443 0006873 296.9188  92.3188  1.00278806 84840
TDRS 7                  
1 23613U 95035B   16077.84415490 -.00000215  00000-0  00000+0 0  9991
2 23613  14.7396  20.0823 0023283  17.1748 167.0225  1.00266876 75616
ISS (ZARYA)             
1 25544U 98067A   16078.24759378  .00011862  00000-0  18578-3 0  9997
2 25544  51.6437 151.5730 0001616 317.7219 105.0919 15.54182422990832
LANDSAT 7               
1 25682U 99020A   16078.15980549  .00000080  00000-0  27893-4 0  9997
2 25682  98.2210 149.7597 0000679  42.4796 317.6461 14.57105471900184
TERRA                   
1 25994U 99068A   16078.17046716  .00000319  00000-0  80798-4 0  9994
2 25994  98.2169 153.7174 0001539  79.2435 280.8943 14.57105322864262
TDRS 8                  
1 26388U 00034A   16076.43451096 -.00000253  00000-0  00000+0 0  9996
2 26388   6.7042  59.9924 0004267 238.8771 121.1972  1.00271306 57624
EO-1                    
1 26619U 00075A   16078.13791562  .00000159  00000-0  38719-4 0  9999
2 26619  97.8894 121.6280 0011221 109.6460 250.5956 14.64227501816799
TIMED                   
1 26998U 01055B   16077.50825202  .00000531  00000-0  62401-4 0  9996
2 26998  74.0717 143.7106 0002561 280.5799  79.5093 14.87667482773562
TDRS 9                  
1 27389U 02011A   16077.85143661 -.00000125  00000-0  00000+0 0  9996
2 27389   4.3137  85.5429 0020582 234.7797 150.1754  1.00271767 52908
AQUA                    
1 27424U 02022A   16078.21624385  .00000273  00000-0  70643-4 0  9994
2 27424  98.2085  20.1622 0001713  79.0830  57.1853 14.57085103737870
TDRS 10                 
1 27566U 02055A   16076.16885845  .00000052  00000-0  00000+0 0  9999
2 27566   4.2313  60.4816 0010614 229.8998 130.2197  1.00269098 48678
SORCE                   
1 27651U 03004A   16078.13516040  .00000804  00000-0  99525-4 0  9996
2 27651  39.9966 342.4726 0024516 271.2647  88.5333 14.88268759712817
AURA                    
1 28376U 04026A   16078.19572114  .00000350  00000-0  87870-4 0  9992
2 28376  98.2172  22.2991 0001250  78.8062 281.3277 14.57104471620913
SWIFT                   
1 28485U 04047A   16077.40563728  .00002975  00000-0  18309-3 0  9995
2 28485  20.5575  86.3584 0011374 230.1811 129.7621 15.02950364619378
THEMIS A                
1 30580U 07004A   16076.65293662  .00000748  00000-0  10492+0 0  9990
2 30580  11.8783 290.5047 8311091 340.1466   0.0314  1.00246095 33045
THEMIS D                
1 30797U 07004D   16078.80969323 -.00000032  00000-0  10919-1 0  9996
2 30797   5.4818 279.4282 8269387 353.5742   0.1530  0.99954727 32916
THEMIS E                
1 30798U 07004E   16078.59999707  .00001051  00000-0  17024+0 0  9995
2 30798   7.0948 291.7206 8298782 342.1594   0.1020  1.00581449 33074
AIM                     
1 31304U 07015A   16077.88600360  .00004430  00000-0  27255-3 0  9991
2 31304  97.9559 230.8922 0004338 241.8011 118.2779 15.10577439486014
FGRST (GLAST)           
1 33053U 08029A   16076.46230933  .00001456  00000-0  68643-4 0  9990
2 33053  25.5824 237.8775 0012837  30.1189 330.0082 15.10503984428022
WISE                    
1 36119U 09071A   16078.13508735  .00003548  00000-0  13761-3 0  9992
2 36119  97.4885  99.0707 0004397 112.6021 247.5683 15.26784099346651
TDRS 11                 
1 39070U 13004A   16077.90068260  .00000064  00000-0  00000+0 0  9998
2 39070   5.9498 329.3407 0009849 287.4897  72.3444  1.00280403 11452
TDRS 12                 
1 39504U 14004A   16076.56422663 -.00000299  00000-0  00000+0 0  9994
2 39504   6.4297 336.8174 0001647 328.1533  31.7958  1.00275580  7903
GPM-CORE                
1 39574U 14009C   16077.94921623  .00012559  00000-0  18321-3 0  9999
2 39574  65.0130  31.3096 0007938 288.7912  71.2373 15.55973808116553
MMS 1                   
1 40482U 15011A   16077.52484664 -.00000113  00000-0  00000+0 0  9991
2 40482  28.6859 350.0782 8155929  86.8545  93.1653  1.00497158  3722
MMS 2                   
1 40483U 15011B   16077.60927716 -.00000114  00000-0  00000+0 0  9992
2 40483  28.6864 350.0641 8158560  86.8742 123.7277  1.00497189  3722
MMS 3                   
1 40484U 15011C   16077.52484664 -.00000114  00000-0  00000+0 0  9994
2 40484  28.6841 350.0779 8156732  86.8373  93.2189  1.00497144  3723
MMS 4                   
1 40485U 15011D   16077.56661001 -.00000114  00000-0  00000+0 0  9991
2 40485  28.6954 350.0682 8156940  86.8567 108.3057  1.00497149  3725
